      2.10          N: GNSS NAV DATA                        RINEX VERSION / TYPE
fic2rin                                 03/06/2023 00:18:09 PGM / RUN BY / DATE
                                                            END OF HEADER
7  23  3  5  1 59 44.0  .229511409998D-03 -.750333128963D-11  .000000000000D+00
     .130000000000D+02  .340312500000D+02  .468983820773D-08  .254846360434D+01
     .162422657013D-05  .168414437212D-01  .827386975288D-05  .515358449554D+04
     .718400000000D+04  .447034835815D-07  .617398535413D+00 -.244006514549D-06
     .950627343456D+00  .213281250000D+03 -.222072448709D+01 -.781353975101D-08
     .574309636587D-09  .100000000000D+01  .225200000000D+04  .000000000000D+00
     .240000000000D+01  .000000000000D+00 -.111758708954D-07  .130000000000D+02
     .000000000000D+00  .400000000000D+01
8  23  3  5  1 59 44.0 -.111386645585D-03 -.181898940355D-11  .000000000000D+00
     .620000000000D+02  .213750000000D+02  .437518224390D-08 -.931811389136D+00
     .105425715446D-05  .838871987071D-02  .102855265141D-04  .515366638756D+04
     .718400000000D+04  .160187482834D-06  .268361292263D+01 -.912696123123D-07
     .960021849335D+00  .178031250000D+03  .228883327738D+00 -.787211361942D-08
    -.241795786051D-09  .100000000000D+01  .225200000000D+04  .000000000000D+00
     .240000000000D+01  .000000000000D+00  .512227416039D-08  .620000000000D+02
     .000000000000D+00  .400000000000D+01
13 23  3  5 10  0  0.0  .485721509904D-03  .591171556152D-11  .000000000000D+00
     .500000000000D+02 -.704687500000D+02  .407445543171D-08  .282437346802D+01
    -.370852649212D-05  .679618353024D-02  .110827386379D-04  .515367498589D+04
     .360000000000D+05 -.186264514923D-08 -.295175286413D+00 -.104308128357D-06
     .970003571994D+00  .169718750000D+03  .927753228052D+00 -.759710216408D-08
     .146434671020D-10  .100000000000D+01  .225200000000D+04  .000000000000D+00
     .240000000000D+01  .000000000000D+00 -.111758708954D-07  .500000000000D+02
     .288000000000D+05  .400000000000D+01
8  23  3  5 10  0  0.0 -.111442059278D-03 -.181898940355D-11  .000000000000D+00
     .100000000000D+01  .227500000000D+02  .413374361559D-08 -.301214800776D+01
     .118836760521D-05  .838942592964D-02  .117104500532D-04  .515367143631D+04
     .360000000000D+05 -.726431608200D-07  .268338712123D+01 -.689178705215D-07
     .960012558342D+00  .154906250000D+03  .229096360794D+00 -.769210612138D-08
    -.343942898031D-09  .100000000000D+01  .225200000000D+04  .000000000000D+00
     .240000000000D+01  .000000000000D+00  .512227416039D-08  .257000000000D+03
     .288000000000D+05  .400000000000D+01
11 23  3  5 10  0  0.0 -.121284741908D-03 -.110276232590D-10  .000000000000D+00
     .147000000000D+03  .102531250000D+03  .438089676765D-08  .251987671338D+01
     .550039112568D-05  .753297237679D-03  .567920506001D-05  .515371292114D+04
     .360000000000D+05 -.540167093277D-07 -.247613028847D+01 -.223517417908D-07
     .964995386057D+00  .268562500000D+03 -.268802516548D+01 -.810819488172D-08
     .431446542909D-09  .100000000000D+01  .225200000000D+04  .000000000000D+00
     .240000000000D+01  .000000000000D+00 -.884756445885D-08  .147000000000D+03
     .288000000000D+05  .400000000000D+01
25 23  3  5 10  0  0.0  .425178091973D-03  .306954461848D-11  .000000000000D+00
     .950000000000D+02 -.143750000000D+02  .512521348571D-08 -.453765058119D+00
    -.664964318275D-06  .111783414613D-01  .493600964546D-05  .515375995827D+04
     .360000000000D+05 -.540167093277D-07  .165065019438D+01  .150874257088D-06
     .953408439963D+00  .280156250000D+03  .103714952080D+01 -.854214152877D-08
    -.303226916332D-09  .100000000000D+01  .225200000000D+04  .000000000000D+00
     .340000000000D+01  .000000000000D+00  .558793544769D-08  .950000000000D+02
     .288000000000D+05  .400000000000D+01
14 23  3  5 10  0  0.0 -.120522454381D-04  .977706804406D-11  .000000000000D+00
     .520000000000D+02 -.230625000000D+02  .513235664040D-08 -.287036291939D+00
    -.138394534588D-05  .275491562206D-02  .498071312904D-05  .515365939331D+04
     .360000000000D+05  .949949026108D-07  .169466368230D+01  .111758708954D-07
     .949126553354D+00  .279093750000D+03 -.308050699214D+01 -.839784980415D-08
    -.410731394325D-09  .100000000000D+01  .225200000000D+04  .000000000000D+00
     .240000000000D+01  .000000000000D+00 -.791624188423D-08  .308000000000D+03
     .288000000000D+05  .400000000000D+01
18 23  3  5 10  0  0.0 -.166428275406D-03 -.161435309565D-10  .000000000000D+00
     .127000000000D+03  .988125000000D+02  .422660462648D-08  .117519313327D+01
     .514648854733D-05  .298639549874D-02  .572018325329D-05  .515368901825D+04
     .360000000000D+05  .372529029846D-08 -.250881069047D+01  .875443220139D-07
     .973529112401D+00  .276281250000D+03 -.311496583878D+01 -.801783397497D-08
     .351800368183D-09  .100000000000D+01  .225200000000D+04  .000000000000D+00
     .240000000000D+01  .000000000000D+00 -.838190317154D-08  .639000000000D+03
     .288000000000D+05  .400000000000D+01
28 23  3  5 10  0  0.0  .340333208442D-04  .117097442853D-10  .000000000000D+00
     .184000000000D+03  .337812500000D+02  .458340520294D-08 -.113299910729D+01
     .175833702087D-05  .962529098615D-03  .854209065437D-05  .515363366318D+04
     .360000000000D+05 -.335276126862D-07  .578878900287D+00  .149011611938D-07
     .961833155503D+00  .212531250000D+03  .169108753370D+01 -.800533345427D-08
     .433589489314D-09  .100000000000D+01  .225200000000D+04  .000000000000D+00
     .240000000000D+01  .000000000000D+00 -.139698386192D-08  .440000000000D+03
     .288000000000D+05  .400000000000D+01
23 23  3  5 10  0  0.0  .900821760297D-05  .193267624127D-11  .000000000000D+00
     .179000000000D+03 -.494687500000D+02  .463983612494D-08  .142608973105D+00
    -.255368649960D-05  .299870525487D-02  .228732824326D-05  .515364753723D+04
     .360000000000D+05  .931322574615D-08 -.150891298001D+01 -.745058059692D-08
     .972289124019D+00  .341218750000D+03 -.309255662558D+01 -.834249035535D-08
    -.921466954226D-10  .100000000000D+01  .225200000000D+04  .000000000000D+00
     .240000000000D+01  .000000000000D+00 -.838190317154D-08  .947000000000D+03
     .288000000000D+05  .400000000000D+01
22 23  3  5 10  0  0.0  .439218245447D-03  .738964445191D-11  .000000000000D+00
     .590000000000D+02 -.859687500000D+02  .414981571362D-08  .302811918914D+01
    -.438652932644D-05  .140340448124D-01  .116266310215D-04  .515361373520D+04
     .360000000000D+05  .173225998878D-06 -.349584710544D+00 -.156462192535D-06
     .962806505121D+00  .151187500000D+03 -.182275616173D+01 -.758067290831D-08
    -.325013538118D-10  .100000000000D+01  .225200000000D+04  .000000000000D+00
     .240000000000D+01  .630000000000D+02 -.791624188423D-08  .590000000000D+02
     .288000000000D+05  .400000000000D+01
30 23  3  5  9 59 44.0 -.528109725565D-03  .147792889038D-11  .000000000000D+00
     .000000000000D+00  .357500000000D+02  .523164649050D-08  .304197118300D+00
     .190921127796D-05  .619606359396D-02  .779516994953D-05  .515362838936D+04
     .359840000000D+05  .931322574615D-08  .624526700307D+00  .316649675369D-07
     .935762199829D+00  .211375000000D+03 -.264132863021D+01 -.841427905993D-08
     .382158775590D-09  .100000000000D+01  .225200000000D+04  .000000000000D+00
     .240000000000D+01  .000000000000D+00  .372529029846D-08  .000000000000D+00
     .292800000000D+05  .400000000000D+01
29 23  3  5  9 59 44.0 -.589331146330D-03 -.181898940355D-11  .000000000000D+00
     .600000000000D+01  .262812500000D+02  .380944439294D-08 -.294851610375D+01
     .138767063618D-05  .225428107660D-02  .110324472189D-04  .515357607079D+04
     .359840000000D+05  .279396772385D-07  .278496215653D+01  .204890966415D-07
     .977805121005D+00  .176000000000D+03  .238616085878D+01 -.756888670308D-08
    -.280011663610D-09  .100000000000D+01  .225200000000D+04  .000000000000D+00
     .240000000000D+01  .000000000000D+00 -.102445483208D-07  .600000000000D+01
     .309300000000D+05  .400000000000D+01
8  23  3  5  9 59 44.0 -.111444853246D-03 -.181898940355D-11  .000000000000D+00
     .110000000000D+02  .227500000000D+02  .413374361559D-08 -.301448137380D+01
     .118836760521D-05  .838942953851D-02  .117104500532D-04  .515367144394D+04
     .359840000000D+05 -.726431608200D-07  .268338724996D+01 -.689178705215D-07
     .960012559805D+00  .154906250000D+03  .229095962881D+00 -.769210612138D-08
    -.343942898031D-09  .100000000000D+01  .225200000000D+04  .000000000000D+00
     .240000000000D+01  .000000000000D+00  .512227416039D-08  .110000000000D+02
     .309600000000D+05  .400000000000D+01
